YAM-7                   
1 60504U 24149AN  26068.71799904  .00009009  00000+0  30984-3 0  9997
2 60504  97.3828 149.4631 0001973 296.5121  63.5918 15.30304554 86835
STARLINK-32273          
1 61956U 24209T   26068.52449591  .00019850  00000+0  68061-3 0  9991
2 61956  53.1605 143.0238 0001300  64.5828 295.5308 15.30196803 74871
